SENTINEL-6              
1 46984U 20086A   24081.55236346 -.00000061  00000+0 -39048-7 0  9995
2 46984  66.0436  33.2851 0007885 271.3609  88.6503 12.80929217155604
